{"type": "FeatureCollection", "name": "WellSTAR%3A_Oil_and_Gas_Wells", "crs": {"type": "name", "properties": {"name": "urn:ogc:def:crs:OGC:1.3:CRS84"}}, "features": [{"type": "Feature", "properties": {"Place": "San Diego County", "OBJECTID": 1494, "API": "0407300005", "LeaseName": "Turner", "WellNumber": "1", "WellDesignation": "Turner 1", "WellStatus": "Idle", "WellType": "OG", "WellTypeLabel": "Oil & Gas", "OperatorCode": "01364", "OperatorName": "Cardiff Oil Corp.", "FieldName": "Any Field", "AreaName": "Any Area", "District": "Southern", "CountyName": "San Diego", "Section": "24", "Township": "13S", "Range": "04W", "BaseMeridian": "SB", "Latitude": 33.02740479, "Longitude": -117.23946381, "GISSource": "hud", "isConfidential": "N", "isDirectionallyDrilled": "N", "SpudDate": "07/29/1926", "inHPZ": "Verified HPZ", "WellSymbol": "IdleOG"}, "geometry": {"type": "Point", "coordinates": [-117.23947574676296, 33.02740958384257]}}, {"type": "Feature", "properties": {"Place": "San Diego", "OBJECTID": 1496, "API": "0407300003", "LeaseName": "Lease by Borderland Exploration Co., Inc.", "WellNumber": "1", "WellDesignation": "1", "WellStatus": "Idle", "WellType": "OG", "WellTypeLabel": "Oil & Gas", "OperatorCode": "00873", "OperatorName": "Borderland Exploration Co., Inc.", "FieldName": "Any Field", "AreaName": "Any Area", "District": "Southern", "CountyName": "San Diego", "Section": "30", "Township": "16S", "Range": "03W", "BaseMeridian": "SB", "Latitude": 32.75073624, "Longitude": -117.23206329, "GISSource": "hud", "isConfidential": "N", "isDirectionallyDrilled": "N", "SpudDate": "01/04/1930", "inHPZ": "Verified HPZ", "WellSymbol": "IdleOG"}, "geometry": {"type": "Point", "coordinates": [-117.23207520536515, 32.75074100151909]}}, {"type": "Feature", "properties": {"Place": "San Marcos", "OBJECTID": 1498, "API": "0407300014", "LeaseName": "Lease by Davenport Oil & Gas Development Co.", "WellNumber": "1", "WellDesignation": "1", "WellStatus": "Idle", "WellType": "OG", "WellTypeLabel": "Oil & Gas", "OperatorCode": "02065", "OperatorName": "Davenport Oil & Gas Development Co.", "FieldName": "Any Field", "AreaName": "Any Area", "District": "Southern", "CountyName": "San Diego", "Section": "09", "Township": "12S", "Range": "03W", "BaseMeridian": "SB", "Latitude": 33.14785385, "Longitude": -117.19570923, "GISSource": "hud", "isConfidential": "N", "isDirectionallyDrilled": "N", "SpudDate": null, "inHPZ": "Verified HPZ", "WellSymbol": "IdleOG"}, "geometry": {"type": "Point", "coordinates": [-117.19572116824945, 33.147858660015146]}}, {"type": "Feature", "properties": {"Place": "San Diego", "OBJECTID": 1500, "API": "0407300031", "LeaseName": "Mack", "WellNumber": "1", "WellDesignation": "Mack 1", "WellStatus": "Idle", "WellType": "OG", "WellTypeLabel": "Oil & Gas", "OperatorCode": "04045", "OperatorName": "Homer C. Mills, Inc.", "FieldName": "Any Field", "AreaName": "Any Area", "District": "Southern", "CountyName": "San Diego", "Section": "14", "Township": "15S", "Range": "03W", "BaseMeridian": "SB", "Latitude": 32.86474609, "Longitude": -117.16246796, "GISSource": "hud", "isConfidential": "N", "isDirectionallyDrilled": "N", "SpudDate": null, "inHPZ": "Not Within HPZ", "WellSymbol": "IdleOG"}, "geometry": {"type": "Point", "coordinates": [-117.16247987174663, 32.86475086818899]}}, {"type": "Feature", "properties": {"Place": "San Diego", "OBJECTID": 1502, "API": "0407300001", "LeaseName": "Lease by Associated Oil Syndicate", "WellNumber": "1", "WellDesignation": "1", "WellStatus": "Idle", "WellType": "OG", "WellTypeLabel": "Oil & Gas", "OperatorCode": "00488", "OperatorName": "Associated Oil Syndicate", "FieldName": "Any Field", "AreaName": "Any Area", "District": "Southern", "CountyName": "San Diego", "Section": "03", "Township": "16S", "Range": "03W", "BaseMeridian": "SB", "Latitude": 32.80450821, "Longitude": -117.1612854, "GISSource": "hud", "isConfidential": "N", "isDirectionallyDrilled": "N", "SpudDate": null, "inHPZ": "Verified HPZ", "WellSymbol": "IdleOG"}, "geometry": {"type": "Point", "coordinates": [-117.16129730704874, 32.804512981592914]}}, {"type": "Feature", "properties": {"Place": "San Diego", "OBJECTID": 1504, "API": "0407300034", "LeaseName": "Lease by Mission Valley Oil Enterprise", "WellNumber": "1", "WellDesignation": "1", "WellStatus": "Idle", "WellType": "OG", "WellTypeLabel": "Oil & Gas", "OperatorCode": "06001", "OperatorName": "Mission Valley Oil Enterprise", "FieldName": "Any Field", "AreaName": "Any Area", "District": "Southern", "CountyName": "San Diego", "Section": "24", "Township": "16S", "Range": "03W", "BaseMeridian": "SB", "Latitude": 32.76901627, "Longitude": -117.1366806, "GISSource": "hud", "isConfidential": "N", "isDirectionallyDrilled": "N", "SpudDate": null, "inHPZ": "Verified HPZ", "WellSymbol": "IdleOG"}, "geometry": {"type": "Point", "coordinates": [-117.13669250082404, 32.76902103878482]}}, {"type": "Feature", "properties": {"Place": "Imperial Beach", "OBJECTID": 1506, "API": "0407300038", "LeaseName": "Lease by Otay Oil Co.", "WellNumber": "1", "WellDesignation": "1", "WellStatus": "Idle", "WellType": "OG", "WellTypeLabel": "Oil & Gas", "OperatorCode": "06497", "OperatorName": "Otay Oil Co.", "FieldName": "Any Field", "AreaName": "Any Area", "District": "Southern", "CountyName": "San Diego", "Section": "30", "Township": "18S", "Range": "01W", "BaseMeridian": "SB", "Latitude": 32.572052, "Longitude": -117.12908936, "GISSource": "hud", "isConfidential": "N", "isDirectionallyDrilled": "N", "SpudDate": null, "inHPZ": "Verified HPZ", "WellSymbol": "IdleOG"}, "geometry": {"type": "Point", "coordinates": [-117.12910124529478, 32.572056745416944]}}, {"type": "Feature", "properties": {"Place": "Imperial Beach", "OBJECTID": 1508, "API": "0407300049", "LeaseName": "James N. Crofton", "WellNumber": "1", "WellDesignation": "James N. Crofton 1", "WellStatus": "Idle", "WellType": "OG", "WellTypeLabel": "Oil & Gas", "OperatorCode": "07943", "OperatorName": "South Bay Oil & Gas Co., Ltd.", "FieldName": "Any Field", "AreaName": "Any Area", "District": "Southern", "CountyName": "San Diego", "Section": "31", "Township": "18S", "Range": "02W", "BaseMeridian": "SB", "Latitude": 32.56234741, "Longitude": -117.12001801, "GISSource": "hud", "isConfidential": "N", "isDirectionallyDrilled": "N", "SpudDate": "04/13/1931", "inHPZ": "Verified HPZ", "WellSymbol": "IdleOG"}, "geometry": {"type": "Point", "coordinates": [-117.12002989316406, 32.56235215473729]}}, {"type": "Feature", "properties": {"Place": "San Diego", "OBJECTID": 1510, "API": "0407300042", "LeaseName": "Lease by San Diego Gas & Petroleum Corp.", "WellNumber": "1", "WellDesignation": "1", "WellStatus": "Idle", "WellType": "OG", "WellTypeLabel": "Oil & Gas", "OperatorCode": "07603", "OperatorName": "San Diego Gas & Petroleum Corp.", "FieldName": "Any Field", "AreaName": "Any Area", "District": "Southern", "CountyName": "San Diego", "Section": "32", "Township": "18S", "Range": "02W", "BaseMeridian": "SB", "Latitude": 32.55738068, "Longitude": -117.11035156, "GISSource": "hud", "isConfidential": "N", "isDirectionallyDrilled": "N", "SpudDate": "03/13/1934", "inHPZ": "Not Within HPZ", "WellSymbol": "IdleOG"}, "geometry": {"type": "Point", "coordinates": [-117.11036344129357, 32.5573854242073]}}, {"type": "Feature", "properties": {"Place": "National City", "OBJECTID": 1512, "API": "0407300019", "LeaseName": "Lease by W. P. Hanson", "WellNumber": "1", "WellDesignation": "1", "WellStatus": "Idle", "WellType": "OG", "WellTypeLabel": "Oil & Gas", "OperatorCode": "08952", "OperatorName": "W. P. Hanson", "FieldName": "Any Field", "AreaName": "Any Area", "District": "Southern", "CountyName": "San Diego", "Section": "23", "Township": "17S", "Range": "02W", "BaseMeridian": "SB", "Latitude": 32.67757034, "Longitude": -117.1004715, "GISSource": "hud", "isConfidential": "N", "isDirectionallyDrilled": "N", "SpudDate": "04/25/1922", "inHPZ": "Verified HPZ", "WellSymbol": "IdleOG"}, "geometry": {"type": "Point", "coordinates": [-117.10048338801481, 32.67757509964377]}}, {"type": "Feature", "properties": {"Place": "San Diego", "OBJECTID": 1514, "API": "0407300039", "LeaseName": "Lease by L. Overbaugh & Rufus Choate", "WellNumber": "1", "WellDesignation": "1", "WellStatus": "Idle", "WellType": "OG", "WellTypeLabel": "Oil & Gas", "OperatorCode": "05120", "OperatorName": "L. Overbaugh & Rufus Choate", "FieldName": "Any Field", "AreaName": "Any Area", "District": "Southern", "CountyName": "San Diego", "Section": "11", "Township": "17S", "Range": "02W", "BaseMeridian": "SB", "Latitude": 32.70323944, "Longitude": -117.05261993, "GISSource": "hud", "isConfidential": "N", "isDirectionallyDrilled": "N", "SpudDate": "10/01/1924", "inHPZ": "Verified HPZ", "WellSymbol": "IdleOG"}, "geometry": {"type": "Point", "coordinates": [-117.05263181178103, 32.70324420514639]}}, {"type": "Feature", "properties": {"Place": "San Diego", "OBJECTID": 1518, "API": "0407300027", "LeaseName": "Lease by Le Tengo Oil Co.", "WellNumber": "1", "WellDesignation": "1", "WellStatus": "Idle", "WellType": "OG", "WellTypeLabel": "Oil & Gas", "OperatorCode": "05244", "OperatorName": "Le Tengo Oil Co.", "FieldName": "Any Field", "AreaName": "Any Area", "District": "Southern", "CountyName": "San Diego", "Section": "31", "Township": "18S", "Range": "01W", "BaseMeridian": "SB", "Latitude": 32.56086731, "Longitude": -117.02442932, "GISSource": "hud", "isConfidential": "N", "isDirectionallyDrilled": "N", "SpudDate": null, "inHPZ": "Verified HPZ", "WellSymbol": "IdleOG"}, "geometry": {"type": "Point", "coordinates": [-117.02444118696198, 32.56087205914779]}}, {"type": "Feature", "properties": {"Place": "Chula Vista", "OBJECTID": 1526, "API": "0407300036", "LeaseName": "Lease by National City Oil Co.", "WellNumber": "1", "WellDesignation": "1", "WellStatus": "Idle", "WellType": "OG", "WellTypeLabel": "Oil & Gas", "OperatorCode": "06169", "OperatorName": "National City Oil Co.", "FieldName": "Any Field", "AreaName": "Any Area", "District": "Southern", "CountyName": "San Diego", "Section": "22", "Township": "18S", "Range": "02W", "BaseMeridian": "SB", "Latitude": 32.59830856, "Longitude": -117.08420563, "GISSource": "hud", "isConfidential": "N", "isDirectionallyDrilled": "N", "SpudDate": "04/14/1924", "inHPZ": "Verified HPZ", "WellSymbol": "IdleOG"}, "geometry": {"type": "Point", "coordinates": [-117.08421750962194, 32.59831331083298]}}, {"type": "Feature", "properties": {"Place": "Carlsbad", "OBJECTID": 1564, "API": "0407300025", "LeaseName": "Lease by La Costa Oil Co.", "WellNumber": "1", "WellDesignation": "1", "WellStatus": "Idle", "WellType": "OG", "WellTypeLabel": "Oil & Gas", "OperatorCode": "05157", "OperatorName": "La Costa Oil Co.", "FieldName": "Any Field", "AreaName": "Any Area", "District": "Southern", "CountyName": "San Diego", "Section": "26", "Township": "12S", "Range": "04W", "BaseMeridian": "SB", "Latitude": 33.10503387, "Longitude": -117.26644135, "GISSource": "hud", "isConfidential": "N", "isDirectionallyDrilled": "N", "SpudDate": null, "inHPZ": "Verified HPZ", "WellSymbol": "IdleOG"}, "geometry": {"type": "Point", "coordinates": [-117.26645329740212, 33.105038671763616]}}, {"type": "Feature", "properties": {"Place": "Oceanside", "OBJECTID": 1589, "API": "0407300045", "LeaseName": "Lease by C. R. Schuster", "WellNumber": "1", "WellDesignation": "1", "WellStatus": "Idle", "WellType": "OG", "WellTypeLabel": "Oil & Gas", "OperatorCode": "01148", "OperatorName": "C. R. Schuster", "FieldName": "Any Field", "AreaName": "Any Area", "District": "Southern", "CountyName": "San Diego", "Section": "23", "Township": "11S", "Range": "05W", "BaseMeridian": "SB", "Latitude": 33.20885468, "Longitude": -117.38178253, "GISSource": "hud", "isConfidential": "N", "isDirectionallyDrilled": "N", "SpudDate": null, "inHPZ": "Verified HPZ", "WellSymbol": "IdleOG"}, "geometry": {"type": "Point", "coordinates": [-117.38179450502447, 33.20885948758718]}}, {"type": "Feature", "properties": {"Place": "Oceanside", "OBJECTID": 1595, "API": "0407300037", "LeaseName": "Lease by Oceanside Oil & Gas Synd.", "WellNumber": "1", "WellDesignation": "1", "WellStatus": "Idle", "WellType": "OG", "WellTypeLabel": "Oil & Gas", "OperatorCode": "06388", "OperatorName": "Oceanside Oil & Gas Synd.", "FieldName": "Any Field", "AreaName": "Any Area", "District": "Southern", "CountyName": "San Diego", "Section": "24", "Township": "11S", "Range": "05W", "BaseMeridian": "SB", "Latitude": 33.20647812, "Longitude": -117.35559082, "GISSource": "hud", "isConfidential": "N", "isDirectionallyDrilled": "N", "SpudDate": null, "inHPZ": "Verified HPZ", "WellSymbol": "IdleOG"}, "geometry": {"type": "Point", "coordinates": [-117.3556027907144, 33.206482928553754]}}, {"type": "Feature", "properties": {"Place": "San Diego", "OBJECTID": 1597, "API": "0407300033", "LeaseName": "Lease by Mission Bay Oil Co.", "WellNumber": "1", "WellDesignation": "1", "WellStatus": "Idle", "WellType": "OG", "WellTypeLabel": "Oil & Gas", "OperatorCode": "05996", "OperatorName": "Mission Bay Oil Co.", "FieldName": "Any Field", "AreaName": "Any Area", "District": "Southern", "CountyName": "San Diego", "Section": "19", "Township": "16S", "Range": "03W", "BaseMeridian": "SB", "Latitude": 32.74668884, "Longitude": -117.23348236, "GISSource": "hud", "isConfidential": "N", "isDirectionallyDrilled": "N", "SpudDate": null, "inHPZ": "Verified HPZ", "WellSymbol": "IdleOG"}, "geometry": {"type": "Point", "coordinates": [-117.23349427581611, 32.74669360051132]}}, {"type": "Feature", "properties": {"Place": "San Diego", "OBJECTID": 1599, "API": "0407300043", "LeaseName": "Macneece", "WellNumber": "1", "WellDesignation": "Macneece 1", "WellStatus": "Idle", "WellType": "OG", "WellTypeLabel": "Oil & Gas", "OperatorCode": "07604", "OperatorName": "San Diego Sorrento Oil Co.", "FieldName": "Any Field", "AreaName": "Any Area", "District": "Southern", "CountyName": "San Diego", "Section": "05", "Township": "15S", "Range": "03W", "BaseMeridian": "SB", "Latitude": 32.90418243, "Longitude": -117.21958923, "GISSource": "hud", "isConfidential": "N", "isDirectionallyDrilled": "N", "SpudDate": null, "inHPZ": "Verified HPZ", "WellSymbol": "IdleOG"}, "geometry": {"type": "Point", "coordinates": [-117.21960115441411, 32.90418721032654]}}, {"type": "Feature", "properties": {"Place": "San Diego", "OBJECTID": 1601, "API": "0407300051", "LeaseName": "Lease by Tecalote Dome Oil Co.", "WellNumber": "1", "WellDesignation": "1", "WellStatus": "Idle", "WellType": "OG", "WellTypeLabel": "Oil & Gas", "OperatorCode": "08248", "OperatorName": "Tecalote Dome Oil Co.", "FieldName": "Any Field", "AreaName": "Any Area", "District": "Southern", "CountyName": "San Diego", "Section": "20", "Township": "16S", "Range": "03W", "BaseMeridian": "SB", "Latitude": 32.84810257, "Longitude": -117.20555115, "GISSource": "hud", "isConfidential": "N", "isDirectionallyDrilled": "N", "SpudDate": "08/03/1920", "inHPZ": "Verified HPZ", "WellSymbol": "IdleOG"}, "geometry": {"type": "Point", "coordinates": [-117.20556306828145, 32.84810734432228]}}, {"type": "Feature", "properties": {"Place": "San Diego", "OBJECTID": 1605, "API": "0407300028", "LeaseName": "Lease by Linda Vista Oil Co.", "WellNumber": "1", "WellDesignation": "1", "WellStatus": "Idle", "WellType": "OG", "WellTypeLabel": "Oil & Gas", "OperatorCode": "05343", "OperatorName": "Linda Vista Oil Co.", "FieldName": "Any Field", "AreaName": "Any Area", "District": "Southern", "CountyName": "San Diego", "Section": "23", "Township": "15S", "Range": "03W", "BaseMeridian": "SB", "Latitude": 32.84879303, "Longitude": -117.1639328, "GISSource": "hud", "isConfidential": "N", "isDirectionallyDrilled": "N", "SpudDate": "04/03/1920", "inHPZ": "Verified HPZ", "WellSymbol": "IdleOG"}, "geometry": {"type": "Point", "coordinates": [-117.16394471136132, 32.8487978066938]}}, {"type": "Feature", "properties": {"Place": "San Diego", "OBJECTID": 1607, "API": "0407300047", "LeaseName": "Balboa", "WellNumber": "1", "WellDesignation": "Balboa 1", "WellStatus": "Idle", "WellType": "OG", "WellTypeLabel": "Oil & Gas", "OperatorCode": "04302", "OperatorName": "J. A. Smith & F. R. Williams", "FieldName": "Any Field", "AreaName": "Any Area", "District": "Southern", "CountyName": "San Diego", "Section": "13", "Township": "16S", "Range": "03W", "BaseMeridian": "SB", "Latitude": 32.76117325, "Longitude": -117.1603241, "GISSource": "hud", "isConfidential": "N", "isDirectionallyDrilled": "N", "SpudDate": "08/01/1911", "inHPZ": "Verified HPZ", "WellSymbol": "IdleOG"}, "geometry": {"type": "Point", "coordinates": [-117.16033600459185, 32.761178015970785]}}, {"type": "Feature", "properties": {"Place": "San Diego", "OBJECTID": 1611, "API": "0407300012", "LeaseName": "Scott", "WellNumber": "1", "WellDesignation": "Scott 1", "WellStatus": "Idle", "WellType": "OG", "WellTypeLabel": "Oil & Gas", "OperatorCode": "01792", "OperatorName": "Community Oil Well", "FieldName": "Any Field", "AreaName": "Any Area", "District": "Southern", "CountyName": "San Diego", "Section": "09", "Township": "19S", "Range": "02W", "BaseMeridian": "SB", "Latitude": 32.53781128, "Longitude": -117.09958649, "GISSource": "hud", "isConfidential": "N", "isDirectionallyDrilled": "N", "SpudDate": null, "inHPZ": "Verified HPZ", "WellSymbol": "IdleOG"}, "geometry": {"type": "Point", "coordinates": [-117.0995983677969, 32.53781602290058]}}, {"type": "Feature", "properties": {"Place": "Escondido", "OBJECTID": 1615, "API": "0407300054", "LeaseName": "Lease by Stanley S. Turner", "WellNumber": "1", "WellDesignation": "1", "WellStatus": "Idle", "WellType": "OG", "WellTypeLabel": "Oil & Gas", "OperatorCode": "08052", "OperatorName": "Stanley S. Turner", "FieldName": "Any Field", "AreaName": "Any Area", "District": "Southern", "CountyName": "San Diego", "Section": "21", "Township": "12S", "Range": "02W", "BaseMeridian": "SB", "Latitude": 33.11684418, "Longitude": -117.08927155, "GISSource": "hud", "isConfidential": "N", "isDirectionallyDrilled": "N", "SpudDate": "11/03/1927", "inHPZ": "Verified HPZ", "WellSymbol": "IdleOG"}, "geometry": {"type": "Point", "coordinates": [-117.08928346793688, 33.11684899237257]}}, {"type": "Feature", "properties": {"Place": "San Diego", "OBJECTID": 1617, "API": "0407300040", "LeaseName": "Lease by Palm City Oil Co.", "WellNumber": "1", "WellDesignation": "1", "WellStatus": "Idle", "WellType": "OG", "WellTypeLabel": "Oil & Gas", "OperatorCode": "06624", "OperatorName": "Palm City Oil Co.", "FieldName": "Any Field", "AreaName": "Any Area", "District": "Southern", "CountyName": "San Diego", "Section": "21", "Township": "18S", "Range": "02W", "BaseMeridian": "SB", "Latitude": 32.58648682, "Longitude": -117.08626556, "GISSource": "hud", "isConfidential": "N", "isDirectionallyDrilled": "N", "SpudDate": "10/29/1938", "inHPZ": "Verified HPZ", "WellSymbol": "IdleOG"}, "geometry": {"type": "Point", "coordinates": [-117.08627743909489, 32.5864915689243]}}, {"type": "Feature", "properties": {"Place": "Chula Vista", "OBJECTID": 1619, "API": "0407300052", "LeaseName": "Lease by Todd & Clark", "WellNumber": "1", "WellDesignation": "1", "WellStatus": "Idle", "WellType": "OG", "WellTypeLabel": "Oil & Gas", "OperatorCode": "08472", "OperatorName": "Todd & Clark", "FieldName": "Any Field", "AreaName": "Any Area", "District": "Southern", "CountyName": "San Diego", "Section": "06", "Township": "18S", "Range": "01W", "BaseMeridian": "SB", "Latitude": 32.629879, "Longitude": -116.96147156, "GISSource": "hud", "isConfidential": "N", "isDirectionallyDrilled": "N", "SpudDate": null, "inHPZ": "Verified HPZ", "WellSymbol": "IdleOG"}, "geometry": {"type": "Point", "coordinates": [-116.96148342053621, 32.62988376097515]}}, {"type": "Feature", "properties": {"Place": "San Diego County", "OBJECTID": 1621, "API": "0407300007", "LeaseName": "Lease by R. M. Cole Oil & Gas Synd.", "WellNumber": "1", "WellDesignation": "1", "WellStatus": "Idle", "WellType": "OG", "WellTypeLabel": "Oil & Gas", "OperatorCode": "07090", "OperatorName": "R. M. Cole Oil & Gas Synd.", "FieldName": "Any Field", "AreaName": "Any Area", "District": "Southern", "CountyName": "San Diego", "Section": "11", "Township": "15S", "Range": "01W", "BaseMeridian": "SB", "Latitude": 32.88463211, "Longitude": -116.9537735, "GISSource": "hud", "isConfidential": "N", "isDirectionallyDrilled": "N", "SpudDate": null, "inHPZ": "Verified HPZ", "WellSymbol": "IdleOG"}, "geometry": {"type": "Point", "coordinates": [-116.95378537777754, 32.884636901232575]}}, {"type": "Feature", "properties": {"Place": "San Diego County", "OBJECTID": 1631, "API": "0407300044", "LeaseName": "Dauner", "WellNumber": "1", "WellDesignation": "Dauner 1", "WellStatus": "Idle", "WellType": "OG", "WellTypeLabel": "Oil & Gas", "OperatorCode": "07605", "OperatorName": "San Felipe Oil Co.", "FieldName": "Any Field", "AreaName": "Any Area", "District": "Southern", "CountyName": "San Diego", "Section": "25", "Township": "11S", "Range": "08E", "BaseMeridian": "SB", "Latitude": 33.18130875, "Longitude": -116.08531952, "GISSource": "hud", "isConfidential": "N", "isDirectionallyDrilled": "N", "SpudDate": null, "inHPZ": "Not Within HPZ", "WellSymbol": "IdleOG"}, "geometry": {"type": "Point", "coordinates": [-116.0853312669019, 33.18131362268257]}}, {"type": "Feature", "properties": {"Place": "San Diego", "OBJECTID": 1840, "API": "0407300030", "LeaseName": "Butler", "WellNumber": "1-A", "WellDesignation": "Butler 1-A", "WellStatus": "Idle", "WellType": "OG", "WellTypeLabel": "Oil & Gas", "OperatorCode": "08365", "OperatorName": "The MacGregor Corp.", "FieldName": "Any Field", "AreaName": "Any Area", "District": "Southern", "CountyName": "San Diego", "Section": "17", "Township": "14S", "Range": "03W", "BaseMeridian": "SB", "Latitude": 32.95286942, "Longitude": -117.2158432, "GISSource": "hud", "isConfidential": "N", "isDirectionallyDrilled": "N", "SpudDate": "09/01/1928", "inHPZ": "Verified HPZ", "WellSymbol": "IdleOG"}, "geometry": {"type": "Point", "coordinates": [-117.21585512757704, 32.95287420601444]}}, {"type": "Feature", "properties": {"Place": "San Diego", "OBJECTID": 1881, "API": "0407300008", "LeaseName": "Lease by Community Oil Well", "WellNumber": "2", "WellDesignation": "2", "WellStatus": "Idle", "WellType": "OG", "WellTypeLabel": "Oil & Gas", "OperatorCode": "01792", "OperatorName": "Community Oil Well", "FieldName": "Any Field", "AreaName": "Any Area", "District": "Southern", "CountyName": "San Diego", "Section": "04", "Township": "19S", "Range": "02W", "BaseMeridian": "SB", "Latitude": 32.54899979, "Longitude": -117.09194946, "GISSource": "hud", "isConfidential": "N", "isDirectionallyDrilled": "N", "SpudDate": null, "inHPZ": "Verified HPZ", "WellSymbol": "IdleOG"}, "geometry": {"type": "Point", "coordinates": [-117.091961337714, 32.54900453455407]}}, {"type": "Feature", "properties": {"Place": "San Diego", "OBJECTID": 1994, "API": "0407300010", "LeaseName": "Lease by Community Oil Well", "WellNumber": "4", "WellDesignation": "4", "WellStatus": "Idle", "WellType": "OG", "WellTypeLabel": "Oil & Gas", "OperatorCode": "01792", "OperatorName": "Community Oil Well", "FieldName": "Any Field", "AreaName": "Any Area", "District": "Southern", "CountyName": "San Diego", "Section": "08", "Township": "16S", "Range": "03W", "BaseMeridian": "SB", "Latitude": 32.78429031, "Longitude": -117.20523071, "GISSource": "hud", "isConfidential": "N", "isDirectionallyDrilled": "N", "SpudDate": null, "inHPZ": "Verified HPZ", "WellSymbol": "IdleOG"}, "geometry": {"type": "Point", "coordinates": [-117.20524262394824, 32.78429507644014]}}, {"type": "Feature", "properties": {"Place": "San Diego", "OBJECTID": 2007, "API": "0407300011", "LeaseName": "Lease by Community Oil Well", "WellNumber": "5", "WellDesignation": "5", "WellStatus": "Idle", "WellType": "OG", "WellTypeLabel": "Oil & Gas", "OperatorCode": "01792", "OperatorName": "Community Oil Well", "FieldName": "Any Field", "AreaName": "Any Area", "District": "Southern", "CountyName": "San Diego", "Section": "09", "Township": "16S", "Range": "03W", "BaseMeridian": "SB", "Latitude": 32.78809738, "Longitude": -117.19312286, "GISSource": "hud", "isConfidential": "N", "isDirectionallyDrilled": "N", "SpudDate": null, "inHPZ": "Verified HPZ", "WellSymbol": "IdleOG"}, "geometry": {"type": "Point", "coordinates": [-117.19313477212106, 32.78810214807228]}}]}